FORMOSAT 7-1            
1 44349U 19036L   26068.08230957  .00004503  00000+0  36542-3 0  9993
2 44349  23.9993 347.0403 0001047  84.2943 275.7677 14.96019979369648
STARLINK-33993          
1 63949U 25098Z   26068.80554868 -.00087772  00000+0 -74293-2 0  9990
2 63949  70.0003 273.9954 0002378 281.9857  78.1036 14.98390673 46579
